[{"OBJECT_NAME":"STARLINK-32696","OBJECT_ID":"2024-239K","EPOCH":"2026-03-09T21:43:13.766880","MEAN_MOTION":15.30178142,"ECCENTRICITY":0.0001192,"INCLINATION":53.1578,"RA_OF_ASC_NODE":193.1542,"ARG_OF_PERICENTER":68.9211,"MEAN_ANOMALY":291.1917,"EPHEMERIS_TYPE":0,"CLASSIFICATION_TYPE":"U","NORAD_CAT_ID":62310,"ELEMENT_SET_NO":999,"REV_AT_EPOCH":6941,"BSTAR":0.00093902373,"MEAN_MOTION_DOT":0.00027536,"MEAN_MOTION_DDOT":0},{"OBJECT_NAME":"COSMOS 660","OBJECT_ID":"1974-044A","EPOCH":"2026-03-09T22:24:08.129952","MEAN_MOTION":14.66679771,"ECCENTRICITY":0.04337529,"INCLINATION":82.9408,"RA_OF_ASC_NODE":355.0742,"ARG_OF_PERICENTER":327.8768,"MEAN_ANOMALY":29.6656,"EPHEMERIS_TYPE":0,"CLASSIFICATION_TYPE":"U","NORAD_CAT_ID":7337,"ELEMENT_SET_NO":999,"REV_AT_EPOCH":62706,"BSTAR":0.0004937415,"MEAN_MOTION_DOT":0.0001202,"MEAN_MOTION_DDOT":0}]
